PROPCUBE 3              
1 40973U 15058K   26068.73202292  .00005546  00000+0  46586-3 0  9992
2 40973  64.7688 203.0958 0123527  99.6156 261.8939 14.93528956 99948
STARLINK-4142           
1 53255U 22086P   26068.62498905 -.00000266  00000+0  13604-5 0  9996
2 53255  53.2175 194.4129 0001169  86.2463 273.8662 15.08836673201050
