[{"OBJECT_NAME":"PROPCUBE 3","OBJECT_ID":"2015-058K","EPOCH":"2026-03-09T17:34:06.780288","MEAN_MOTION":14.93528956,"ECCENTRICITY":0.01235273,"INCLINATION":64.7688,"RA_OF_ASC_NODE":203.0958,"ARG_OF_PERICENTER":99.6156,"MEAN_ANOMALY":261.8939,"EPHEMERIS_TYPE":0,"CLASSIFICATION_TYPE":"U","NORAD_CAT_ID":40973,"ELEMENT_SET_NO":999,"REV_AT_EPOCH":9994,"BSTAR":0.00046586011,"MEAN_MOTION_DOT":5.546e-5,"MEAN_MOTION_DDOT":0},{"OBJECT_NAME":"STARLINK-4142","OBJECT_ID":"2022-086P","EPOCH":"2026-03-09T14:59:59.053920","MEAN_MOTION":15.08836673,"ECCENTRICITY":0.0001169,"INCLINATION":53.2175,"RA_OF_ASC_NODE":194.4129,"ARG_OF_PERICENTER":86.2463,"MEAN_ANOMALY":273.8662,"EPHEMERIS_TYPE":0,"CLASSIFICATION_TYPE":"U","NORAD_CAT_ID":53255,"ELEMENT_SET_NO":999,"REV_AT_EPOCH":20105,"BSTAR":1.3604e-6,"MEAN_MOTION_DOT":-2.66e-6,"MEAN_MOTION_DDOT":0}]
